API VERSION: 1.2
API SOURCE: NASA/JPL Horizons API



*******************************************************************************
Ephemeris / API_USER Mon Apr 13 11:59:07 2026 Pasadena, USA      / Horizons
*******************************************************************************
Target body name: Mercury (199)                   {source: DE441}
Center body name: Earth (399)                     {source: DE441}
Center-site name: BODY CENTER
*******************************************************************************
Start time      : A.D. 2025-Feb-26 22:32:00.0000 TDB
Stop  time      : A.D. 2025-Feb-28 22:32:00.0000 TDB
Step-size       : 60 minutes
*******************************************************************************
Center geodetic : 0.0, 0.0, 0.0                   {E-lon(deg),Lat(deg),Alt(km)}
Center cylindric: 0.0, 0.0, 0.0                   {E-lon(deg),Dxy(km),Dz(km)}
Center radii    : 6378.137, 6378.137, 6356.752 km {Equator_a, b, pole_c}
Output units    : AU-D
Calendar mode   : Mixed Julian/Gregorian
Output type     : GEOMETRIC cartesian states
Output format   : 3 (position, velocity, LT, range, range-rate)
EOP file        : eop.260410.p260707
EOP coverage    : DATA-BASED 1962-JAN-20 TO 2026-APR-10. PREDICTS-> 2026-JUL-06
Reference frame : Ecliptic of J2000.0
*******************************************************************************
            JDTDB,            Calendar Date (TDB),                      X,                      Y,                      Z,                     VX,                     VY,                     VZ,                     LT,                     RG,                     RR,
**************************************************************************************************************************************************************************************************************************************************************************
$$SOE
2460734.688888889, A.D. 2025-Feb-28 04:32:00.0000,  1.129173386405835E+00, -1.068381406014472E-01,  1.184145773775703E-03, -2.083513313046963E-02,  3.541712889979629E-02,  4.061269022337917E-03,  6.550691390951120E-03,  1.134217054648540E+00, -2.407437693145694E-02,
2460734.730555556, A.D. 2025-Feb-28 05:32:00.0000,  1.128303333334251E+00, -1.053643408039564E-01,  1.353355120686706E-03, -2.092735351533947E-02,  3.532518939817816E-02,  4.060768237873160E-03,  6.544892925152432E-03,  1.133213081417752E+00, -2.411631387828327E-02,
2460734.772222222, A.D. 2025-Feb-28 06:32:00.0000,  1.127429445365768E+00, -1.038943808051740E-01,  1.522542176726279E-03, -2.101920769322348E-02,  3.523281884001146E-02,  4.060199038704432E-03,  6.539084384952518E-03,  1.132207363858465E+00, -2.415810444078651E-02,
2460734.813888889, A.D. 2025-Feb-28 07:32:00.0000,  1.126551737820013E+00, -1.024282785308337E-01,  1.691704088575683E-03, -2.111069273721673E-02,  3.514001890746851E-02,  4.059561295408263E-03,  6.533265805765064E-03,  1.131199908102367E+00, -2.419974706628977E-02,
2460734.855555556, A.D. 2025-Feb-28 08:32:00.0000,  1.125670226138411E+00, -1.009660518360423E-01,  1.860837997581870E-03, -2.120180572787397E-02,  3.504679130846507E-02,  4.058854881357692E-03,  6.527437223377546E-03,  1.130190720345869E+00, -2.424124020094750E-02,
2460734.897222222, A.D. 2025-Feb-28 09:32:00.0000,  1.124784925883875E+00, -9.950771850420714E-02,  2.029941039874174E-03, -2.129254375348325E-02,  3.495313777664300E-02,  4.058079672745807E-03,  6.521598673951500E-03,  1.129179806850145E+00, -2.428258228986011E-02,
2460734.938888889, A.D. 2025-Feb-28 10:32:00.0000,  1.123895852740469E+00, -9.805329624596537E-02,  2.199010346482599E-03, -2.138290391034022E-02,  3.485906007134983E-02,  4.057235548609015E-03,  6.515750194022753E-03,  1.128167173941180E+00, -2.432377177718921E-02,
2460734.980555556, A.D. 2025-Feb-28 11:32:00.0000,  1.123003022513075E+00, -9.660280269811271E-02,  2.368043043456604E-03, -2.147288330302288E-02,  3.476455997761468E-02,  4.056322390850100E-03,  6.509891820501645E-03,  1.127152828009799E+00, -2.436480710627381E-02,
2460735.022222222, A.D. 2025-Feb-28 12:32:00.0000,  1.122106451127041E+00, -9.515625542253379E-02,  2.537036251985013E-03, -2.156247904466701E-02,  3.466963930612087E-02,  4.055340084261023E-03,  6.504023590673209E-03,  1.126136775511707E+00, -2.440568671974715E-02,
2460735.063888889, A.D. 2025-Feb-28 13:32:00.0000,  1.121206154627816E+00, -9.371367190513455E-02,  2.705987088516918E-03, -2.165168825724192E-02,  3.457429989317494E-02,  4.054288516545495E-03,  6.498145542197325E-03,  1.125119022967509E+00, -2.444640905965429E-02,
2460735.105555556, A.D. 2025-Feb-28 14:32:00.0000,  1.120302149180580E+00, -9.227506955477489E-02,  2.874892664883432E-03, -2.174050807182664E-02,  3.447854360067231E-02,  4.053167578341296E-03,  6.492257713108848E-03,  1.124099576962735E+00, -2.448697256757041E-02,
2460735.147222222, A.D. 2025-Feb-28 15:32:00.0000,  1.119394451069856E+00, -9.084046570220303E-02,  3.043750088420404E-03, -2.182893562888655E-02,  3.438237231605937E-02,  4.051977163242309E-03,  6.486360141817706E-03,  1.123078444147861E+00, -2.452737568471978E-02,
2460735.188888889, A.D. 2025-Feb-28 16:32:00.0000,  1.118483076699114E+00, -8.940987759899222E-02,  3.212556462092181E-03, -2.191696807855023E-02,  3.428578795229202E-02,  4.050717167820339E-03,  6.480452867108974E-03,  1.122055631238311E+00, -2.456761685209548E-02,
2460735.230555556, A.D. 2025-Feb-28 17:32:00.0000,  1.117568042590362E+00, -8.798332241647847E-02,  3.381308884615834E-03, -2.200460258088659E-02,  3.418879244779076E-02,  4.049387491646622E-03,  6.474535928142911E-03,  1.121031145014476E+00, -2.460769451057964E-02,
2460735.272222222, A.D. 2025-Feb-28 18:32:00.0000,  1.116649365383726E+00, -8.656081724470054E-02,  3.550004450586878E-03, -2.209183630618230E-02,  3.409138776639214E-02,  4.047988037313092E-03,  6.468609364454972E-03,  1.120004992321707E+00, -2.464760710106444E-02,
2460735.313888889, A.D. 2025-Feb-28 19:32:00.0000,  1.115727061837021E+00, -8.514237909134213E-02,  3.718640250605415E-03, -2.217866643521925E-02,  3.399357589729676E-02,  4.046518710453326E-03,  6.462673215955795E-03,  1.118977180070318E+00, -2.468735306457368E-02,
2460735.355555556, A.D. 2025-Feb-28 20:32:00.0000,  1.114801148825306E+00, -8.372802488067622E-02,  3.887213371403379E-03, -2.226509015955221E-02,  3.389535885501358E-02,  4.044979419763245E-03,  6.456727522931152E-03,  1.117947715235572E+00, -2.472693084238498E-02,
2460735.397222222, A.D. 2025-Feb-28 21:32:00.0000,  1.113871643340427E+00, -8.231777145251140E-02,  4.055720895972404E-03, -2.235110468178651E-02,  3.379673867930069E-02,  4.043370077021532E-03,  6.450772326041875E-03,  1.116916604857675E+00, -2.476633887615245E-02,
2460735.438888889, A.D. 2025-Feb-28 22:32:00.0000,  1.112938562490553E+00, -8.091163556114173E-02,  4.224159903693007E-03, -2.243670721585576E-02,  3.369771743510255E-02,  4.041690597109671E-03,  6.444807666323742E-03,  1.115883856041752E+00, -2.480557560803008E-02,
